SAUS70 KAWN 201755
METAR KAUS 201753Z 18012KT 10SM FEW040 28/18 A2992
RMK AO2 SLP132 T02780178